BEIDOU-3 M19 (C41)      
1 44864U 19090A   26064.56032794 -.00000033  00000+0  00000+0 0  9994
2 44864  56.4687  66.2141 0020433 291.4658 245.9437  1.86231373 42308
BEIDOU-3 M20 (C42)      
1 44865U 19090B   26064.42720734 -.00000032  00000+0  00000+0 0  9997
2 44865  56.4702  66.2529 0017835 302.9017 234.8674  1.86231388 42289
BEIDOU-3 G2 (C60)       
1 45344U 20017A   26064.81304906 -.00000145  00000+0  00000+0 0  9998
2 45344   2.6571  45.6818 0002799 312.9867 177.5975  1.00271514 22228
COSMOS 2545 (760)       
1 45358U 20018A   26064.04887093 -.00000054  00000+0  00000+0 0  9991
2 45358  64.4172 316.0811 0008063 250.0323 109.9417  2.13102426 46443
BEIDOU-3 G3 (C61)       
1 45807U 20040A   26064.89044876 -.00000359  00000+0  00000+0 0  9990
2 45807   2.1938  67.1322 0004459 317.8552 209.6878  1.00274881 21030
GPS BIII-3  (PRN 23)    
1 45854U 20041A   26064.26889156 -.00000083  00000+0  00000+0 0  9996
2 45854  56.6063  32.9753 0061399 205.2468 328.3125  2.00560688 41956
GALAXY 30 (WAAS/PRN 135)
1 46114U 20056C   26064.62974824  .00000000  00000+0  00000+0 0  9997
2 46114   0.0225 160.3254 0002069 192.9294 271.8285  1.00271232 20251
COSMOS 2547 (705K)      
1 46805U 20075A   26063.76811950  .00000008  00000+0  00000+0 0  9997
2 46805  64.5996 195.9570 0006753 229.6375 130.2687  2.13100113 41683
GPS BIII-4  (PRN 14)    
1 46826U 20078A   26064.79964802  .00000012  00000+0  00000+0 0  9997
2 46826  54.0013 214.9691 0068279 204.3383 325.7195  2.00565559 39436
GPS BIII-5  (PRN 11)    
1 48859U 21054A   26064.07032190 -.00000101  00000+0  00000+0 0  9997
2 48859  55.2207 336.6471 0023861 232.0319 315.6765  2.00575594 34666
QZS-1R (QZSS/PRN 196)   
1 49336U 21096A   26063.94141958 -.00000263  00000+0  00000+0 0  9991
2 49336  37.2450  81.1219 0747520 269.7237 284.8903  1.00291077 15963
GSAT0223 (GALILEO 27)   
1 49809U 21116A   26048.03988929 -.00000078  00000+0  00000+0 0  9993
2 49809  57.2005 344.9238 0002865 278.1950 264.6358  1.70475508 26130
GSAT0224 (GALILEO 28)   
1 49810U 21116B   26064.29072237 -.00000105  00000+0  00000+0 0  9998
2 49810  57.1948 344.4822 0001942 295.2728 253.6293  1.70475760 26438
COSMOS 2557 (706K)      
1 52984U 22075A   26063.93321719 -.00000057  00000+0  00000+0 0  9997
2 52984  64.3588 318.1599 0011575 283.5582  76.3723  2.13101614 28492
COSMOS 2559 (707K)      
1 54031U 22130A   26064.69111461 -.00000060  00000+0  00000+0 0  9993
2 54031  64.3310 318.2203 0010609 181.3136 178.7423  2.13101297 26488
COSMOS 2564 (761)       
1 54377U 22161A   26064.53462226  .00000016  00000+0  00000+0 0  9991
2 54377  64.7419 196.1496 0009447 210.0603 149.8542  2.13101972 25423
GPS BIII-6  (PRN 28)    
1 55268U 23009A   26064.24350115  .00000010  00000+0  00000+0 0  9998
2 55268  55.1095 152.6049 0004568 336.6055  15.2776  2.00549197 23157
